{"type": "FeatureCollection", "features": [ {"type": "Feature", "properties": {"norad_id": 39634, "name": "SENTINEL-1A", "group": "resource", "lat": 79.80391705141749, "lon": -123.50415139615629, "alt_km": 687.5047177266297, "timestamp": "2025-12-24T07:45:05.855897+00:00", "meta": {"OBJECT_NAME": "SENTINEL-1A", "OBJECT_ID": "2014-016A", "EPOCH": "2025-12-23T23:05:03.948000", "MEAN_MOTION": 14.59201719, "ECCENTRICITY": 0.00012312, "INCLINATION": 98.1797, "RA_OF_ASC_NODE": 3.0369, "ARG_OF_PERICENTER": 87.5963, "MEAN_ANOMALY": 272.5377, "EPHEMERIS_TYPE": 0, "CLASSIFICATION_TYPE": "U", "NORAD_CAT_ID": 39634, "ELEMENT_SET_NO": 999, "REV_AT_EPOCH": 62446, "BSTAR": -2.3635479e-05, "MEAN_MOTION_DOT": -1.57e-06, "MEAN_MOTION_DDOT": 0}, "tle": {"line1": "1 39634U 14016A   25357.96185125 -.00000157  00000+0 -23635-4 0  9993", "line2": "2 39634  98.1797   3.0369 0001231  87.5963 272.5377 14.59201719624468"}}, "geometry": {"type": "Point", "coordinates": [-123.50415139615629, 79.80391705141749]}}, {"type": "Feature", "properties": {"norad_id": 39731, "name": "KAZEOSAT 1", "group": "resource", "lat": 74.74401883754541, "lon": 37.42384564986942, "alt_km": 743.7202386857753, "timestamp": "2025-12-24T07:45:05.855907+00:00", "meta": {"OBJECT_NAME": "KAZEOSAT 1", "OBJECT_ID": "2014-024A", "EPOCH": "2025-12-23T23:04:07.884768", "MEAN_MOTION": 14.42068133, "ECCENTRICITY": 0.00012221, "INCLINATION": 98.3421, "RA_OF_ASC_NODE": 69.6164, "ARG_OF_PERICENTER": 97.885, "MEAN_ANOMALY": 262.2479, "EPHEMERIS_TYPE": 0, "CLASSIFICATION_TYPE": "U", "NORAD_CAT_ID": 39731, "ELEMENT_SET_NO": 999, "REV_AT_EPOCH": 61330, "BSTAR": 5.7069319e-05, "MEAN_MOTION_DOT": 1.45e-06, "MEAN_MOTION_DDOT": 0}, "tle": {"line1": "1 39731U 14024A   25357.96120237  .00000145  00000+0  57069-4 0  9996", "line2": "2 39731  98.3421  69.6164 0001222  97.8850 262.2479 14.42068133613305"}}, "geometry": {"type": "Point", "coordinates": [37.42384564986942, 74.74401883754541]}}, {"type": "Feature", "properties": {"norad_id": 39766, "name": "ALOS-2", "group": "resource", "lat": 76.013732079108, "lon": 59.0098358178632, "alt_km": 622.8800377987327, "timestamp": "2025-12-24T07:45:05.855917+00:00", "meta": {"OBJECT_NAME": "ALOS-2", "OBJECT_ID": "2014-029A", "EPOCH": "2025-12-23T21:39:33.546240", "MEAN_MOTION": 14.79470935, "ECCENTRICITY": 0.0001368, "INCLINATION": 97.9228, "RA_OF_ASC_NODE": 92.59, "ARG_OF_PERICENTER": 97.1677, "MEAN_ANOMALY": 262.969, "EPHEMERIS_TYPE": 0, "CLASSIFICATION_TYPE": "U", "NORAD_CAT_ID": 39766, "ELEMENT_SET_NO": 999, "REV_AT_EPOCH": 62566, "BSTAR": 0.00028990356, "MEAN_MOTION_DOT": 2.114e-05, "MEAN_MOTION_DDOT": 0}, "tle": {"line1": "1 39766U 14029A   25357.90247160  .00002114  00000+0  28990-3 0  9996", "line2": "2 39766  97.9228  92.5900 0001368  97.1677 262.9690 14.79470935625668"}}, "geometry": {"type": "Point", "coordinates": [59.0098358178632, 76.013732079108]}}, {"type": "Feature", "properties": {"norad_id": 40010, "name": "KAZEOSAT 2", "group": "resource", "lat": -45.60849502850803, "lon": 14.253573472002174, "alt_km": 616.7314806232625, "timestamp": "2025-12-24T07:45:05.855927+00:00", "meta": {"OBJECT_NAME": "KAZEOSAT 2", "OBJECT_ID": "2014-033A", "EPOCH": "2025-12-23T22:39:09.544608", "MEAN_MOTION": 14.85188993, "ECCENTRICITY": 0.00086136, "INCLINATION": 97.5495, "RA_OF_ASC_NODE": 201.6799, "ARG_OF_PERICENTER": 167.5345, "MEAN_ANOMALY": 192.6086, "EPHEMERIS_TYPE": 0, "CLASSIFICATION_TYPE": "U", "NORAD_CAT_ID": 40010, "ELEMENT_SET_NO": 999, "REV_AT_EPOCH": 62294, "BSTAR": 0.00020023562, "MEAN_MOTION_DOT": 1.666e-05, "MEAN_MOTION_DDOT": 0}, "tle": {"line1": "1 40010U 14033A   25357.94386047  .00001666  00000+0  20024-3 0  9998", "line2": "2 40010  97.5495 201.6799 0008613 167.5345 192.6086 14.85188993622940"}}, "geometry": {"type": "Point", "coordinates": [14.253573472002174, -45.60849502850803]}}, {"type": "Feature", "properties": {"norad_id": 40011, "name": "HODOYOSHI-4", "group": "resource", "lat": 49.584363833447235, "lon": 177.686260401175, "alt_km": 607.289760275572, "timestamp": "2025-12-24T07:45:05.855937+00:00", "meta": {"OBJECT_NAME": "HODOYOSHI-4", "OBJECT_ID": "2014-033B", "EPOCH": "2025-12-23T23:27:14.241888", "MEAN_MOTION": 14.87521658, "ECCENTRICITY": 0.00239891, "INCLINATION": 97.5409, "RA_OF_ASC_NODE": 186.3072, "ARG_OF_PERICENTER": 162.8317, "MEAN_ANOMALY": 197.3717, "EPHEMERIS_TYPE": 0, "CLASSIFICATION_TYPE": "U", "NORAD_CAT_ID": 40011, "ELEMENT_SET_NO": 999, "REV_AT_EPOCH": 62275, "BSTAR": 0.00020995774, "MEAN_MOTION_DOT": 1.862e-05, "MEAN_MOTION_DDOT": 0}, "tle": {"line1": "1 40011U 14033B   25357.97724817  .00001862  00000+0  20996-3 0  9999", "line2": "2 40011  97.5409 186.3072 0023989 162.8317 197.3717 14.87521658622752"}}, "geometry": {"type": "Point", "coordinates": [177.686260401175, 49.584363833447235]}}, {"type": "Feature", "properties": {"norad_id": 40013, "name": "DEIMOS-2", "group": "resource", "lat": 74.60213420624284, "lon": -155.28270272102597, "alt_km": 580.5586037098465, "timestamp": "2025-12-24T07:45:05.855948+00:00", "meta": {"OBJECT_NAME": "DEIMOS-2", "OBJECT_ID": "2014-033D", "EPOCH": "2025-12-23T21:45:32.685984", "MEAN_MOTION": 14.93018376, "ECCENTRICITY": 0.00014069, "INCLINATION": 97.6057, "RA_OF_ASC_NODE": 233.3389, "ARG_OF_PERICENTER": 105.4039, "MEAN_ANOMALY": 254.7337, "EPHEMERIS_TYPE": 0, "CLASSIFICATION_TYPE": "U", "NORAD_CAT_ID": 40013, "ELEMENT_SET_NO": 999, "REV_AT_EPOCH": 61156, "BSTAR": 0.00012174848, "MEAN_MOTION_DOT": 1.212e-05, "MEAN_MOTION_DDOT": 0}, "tle": {"line1": "1 40013U 14033D   25357.90662831  .00001212  00000+0  12175-3 0  9990", "line2": "2 40013  97.6057 233.3389 0001406 105.4039 254.7337 14.93018376611560"}}, "geometry": {"type": "Point", "coordinates": [-155.28270272102597, 74.60213420624284]}}, {"type": "Feature", "properties": {"norad_id": 40015, "name": "HODOYOSHI-3", "group": "resource", "lat": -44.22189534100339, "lon": -23.832029852098675, "alt_km": 598.9841729769623, "timestamp": "2025-12-24T07:45:05.855958+00:00", "meta": {"OBJECT_NAME": "HODOYOSHI-3", "OBJECT_ID": "2014-033F", "EPOCH": "2025-12-23T22:39:21.603456", "MEAN_MOTION": 14.84843414, "ECCENTRICITY": 0.0032444, "INCLINATION": 97.6206, "RA_OF_ASC_NODE": 163.2923, "ARG_OF_PERICENTER": 209.8678, "MEAN_ANOMALY": 150.0687, "EPHEMERIS_TYPE": 0, "CLASSIFICATION_TYPE": "U", "NORAD_CAT_ID": 40015, "ELEMENT_SET_NO": 999, "REV_AT_EPOCH": 62161, "BSTAR": 0.0001914071, "MEAN_MOTION_DOT": 1.589e-05, "MEAN_MOTION_DDOT": 0}, "tle": {"line1": "1 40015U 14033F   25357.94400004  .00001589  00000+0  19141-3 0  9995", "line2": "2 40015  97.6206 163.2923 0032444 209.8678 150.0687 14.84843414621619"}}, "geometry": {"type": "Point", "coordinates": [-23.832029852098675, -44.22189534100339]}}, {"type": "Feature", "properties": {"norad_id": 40053, "name": "SPOT 7", "group": "resource", "lat": 24.418824117510017, "lon": 56.42864843705707, "alt_km": 689.5293417248331, "timestamp": "2025-12-24T07:45:05.855968+00:00", "meta": {"OBJECT_NAME": "SPOT 7", "OBJECT_ID": "2014-034A", "EPOCH": "2025-12-23T23:25:08.889312", "MEAN_MOTION": 14.60747123, "ECCENTRICITY": 0.00015359, "INCLINATION": 98.089, "RA_OF_ASC_NODE": 59.7917, "ARG_OF_PERICENTER": 82.4881, "MEAN_ANOMALY": 277.6494, "EPHEMERIS_TYPE": 0, "CLASSIFICATION_TYPE": "U", "NORAD_CAT_ID": 40053, "ELEMENT_SET_NO": 999, "REV_AT_EPOCH": 61155, "BSTAR": 0.00012354602, "MEAN_MOTION_DOT": 5.57e-06, "MEAN_MOTION_DDOT": 0}, "tle": {"line1": "1 40053U 14034A   25357.97579733  .00000557  00000+0  12355-3 0  9991", "line2": "2 40053  98.0890  59.7917 0001535  82.4881 277.6494 14.60747123611553"}}, "geometry": {"type": "Point", "coordinates": [56.42864843705707, 24.418824117510017]}}, {"type": "Feature", "properties": {"norad_id": 40072, "name": "SKYSAT-B", "group": "resource", "lat": -12.055551315170245, "lon": -55.558204673133, "alt_km": 613.6115161080188, "timestamp": "2025-12-24T07:45:05.855978+00:00", "meta": {"OBJECT_NAME": "SKYSAT-B", "OBJECT_ID": "2014-037D", "EPOCH": "2025-12-23T09:12:08.448768", "MEAN_MOTION": 14.8736338, "ECCENTRICITY": 0.00067806, "INCLINATION": 98.3626, "RA_OF_ASC_NODE": 301.6522, "ARG_OF_PERICENTER": 120.3207, "MEAN_ANOMALY": 239.8679, "EPHEMERIS_TYPE": 0, "CLASSIFICATION_TYPE": "U", "NORAD_CAT_ID": 40072, "ELEMENT_SET_NO": 999, "REV_AT_EPOCH": 61982, "BSTAR": 0.00018052931, "MEAN_MOTION_DOT": 1.571e-05, "MEAN_MOTION_DDOT": 0}, "tle": {"line1": "1 40072U 14037D   25357.38343112  .00001571  00000+0  18053-3 0  9998", "line2": "2 40072  98.3626 301.6522 0006780 120.3207 239.8679 14.87363380619827"}}, "geometry": {"type": "Point", "coordinates": [-55.558204673133, -12.055551315170245]}}, {"type": "Feature", "properties": {"norad_id": 40115, "name": "WORLDVIEW-3 (WV-3)", "group": "resource", "lat": 37.07757503031791, "lon": -103.53366693676303, "alt_km": 610.6382235039882, "timestamp": "2025-12-24T07:45:05.855989+00:00", "meta": {"OBJECT_NAME": "WORLDVIEW-3 (WV-3)", "OBJECT_ID": "2014-048A", "EPOCH": "2025-12-23T21:24:26.394624", "MEAN_MOTION": 14.84672352, "ECCENTRICITY": 0.00019791, "INCLINATION": 97.8765, "RA_OF_ASC_NODE": 70.0356, "ARG_OF_PERICENTER": 130.8483, "MEAN_ANOMALY": 229.2904, "EPHEMERIS_TYPE": 0, "CLASSIFICATION_TYPE": "U", "NORAD_CAT_ID": 40115, "ELEMENT_SET_NO": 999, "REV_AT_EPOCH": 61589, "BSTAR": 0.00012733018, "MEAN_MOTION_DOT": 1.024e-05, "MEAN_MOTION_DDOT": 0}, "tle": {"line1": "1 40115U 14048A   25357.89197216  .00001024  00000+0  12733-3 0  9998", "line2": "2 40115  97.8765  70.0356 0001979 130.8483 229.2904 14.84672352615898"}}, "geometry": {"type": "Point", "coordinates": [-103.53366693676303, 37.07757503031791]}}]}